[{"OBJECT_NAME":"STARLINK-3156","OBJECT_ID":"2021-104BC","EPOCH":"2026-03-09T17:33:00.404352","MEAN_MOTION":15.08841576,"ECCENTRICITY":0.00015773,"INCLINATION":53.2172,"RA_OF_ASC_NODE":218.9354,"ARG_OF_PERICENTER":73.0513,"MEAN_ANOMALY":287.0652,"EPHEMERIS_TYPE":0,"CLASSIFICATION_TYPE":"U","NORAD_CAT_ID":49458,"ELEMENT_SET_NO":999,"REV_AT_EPOCH":23878,"BSTAR":-7.5188981e-5,"MEAN_MOTION_DOT":-1.485e-5,"MEAN_MOTION_DDOT":0},{"OBJECT_NAME":"STRIX-2","OBJECT_ID":"2024-248A","EPOCH":"2026-03-09T23:00:54.819648","MEAN_MOTION":15.07630986,"ECCENTRICITY":0.00151844,"INCLINATION":97.6197,"RA_OF_ASC_NODE":25.3276,"ARG_OF_PERICENTER":319.5195,"MEAN_ANOMALY":40.4902,"EPHEMERIS_TYPE":0,"CLASSIFICATION_TYPE":"U","NORAD_CAT_ID":62406,"ELEMENT_SET_NO":999,"REV_AT_EPOCH":6663,"BSTAR":0.00066021351,"MEAN_MOTION_DOT":0.00010025,"MEAN_MOTION_DDOT":0}]
